OBJECT_NAME,OBJECT_ID,EPOCH,MEAN_MOTION,ECCENTRICITY,INCLINATION,RA_OF_ASC_NODE,ARG_OF_PERICENTER,MEAN_ANOMALY,EPHEMERIS_TYPE,CLASSIFICATION_TYPE,NORAD_CAT_ID,ELEMENT_SET_NO,REV_AT_EPOCH,BSTAR,MEAN_MOTION_DOT,MEAN_MOTION_DDOT
INTELSAT 23 (IS-23),2012-057A,2026-07-16T00:38:03.728256,1.00268300,.0000468,0.0175,29.8955,202.8618,17.6301,0,U,38867,999,5024,0,-.295E-5,0
FM-6,2013-058A,2026-07-13T23:10:32.594592,1.00270909,.00013903,0.0142,33.4803,144.8411,344.7900,0,U,39360,999,4634,0,-.21E-6,0
INTELSAT 30 (IS-30),2014-062A,2026-07-15T21:28:23.363040,1.00269522,.0001415,0.0195,54.0858,333.0622,133.6241,0,U,40271,999,708,0,-.161E-5,0
DIRECTV 14,2014-078B,2026-07-15T12:14:38.599872,1.00267237,.000069,0.0110,40.7880,304.5925,32.3918,0,U,40333,999,4232,0,-.135E-5,0
DIRECTV 15,2015-026A,2026-07-14T16:20:59.066880,1.00271323,.00000994,0.0176,71.4979,242.5429,120.8693,0,U,40663,999,4073,0,-.111E-5,0
SKY MEXICO-1,2015-026B,2026-07-16T02:50:43.240128,1.00269900,.0002423,0.0159,47.1459,89.3509,121.3242,0,U,40664,999,4074,0,-.245E-5,0
INTELSAT 34 (IS-34),2015-039A,2026-07-16T02:47:29.572800,1.00269484,.000039,0.0104,16.4226,352.3387,271.5648,0,U,40874,999,3992,0,-.296E-5,0
INTELSAT 31 (IS-31),2016-035A,2026-07-16T02:36:13.103136,1.00270128,.0001145,0.0113,301.5806,353.9197,302.4443,0,U,41581,999,3697,0,-.161E-5,0
INTELSAT 36 (IS-36),2016-053A,2026-07-16T03:22:55.869888,1.00270566,.0002358,0.0127,37.3822,302.1989,73.5997,0,U,41747,999,3624,0,-.34E-6,0
INTELSAT 32E (IS-32E),2017-007B,2026-07-15T16:34:59.095200,1.00266215,.00002708,0.0237,56.8760,287.4334,154.7925,0,U,41945,999,3451,0,0,0
INTELSAT 35E (IS-35E),2017-041A,2026-07-15T13:14:38.726304,1.00266637,.0001683,0.0261,63.1048,46.6502,347.7991,0,U,42818,999,3310,0,0,0
INTELSAT 37E (IS-37E),2017-059A,2026-07-16T02:58:13.238112,1.00269793,.0002631,0.0167,54.1867,70.6033,195.7001,0,U,42950,999,3235,0,-.152E-5,0
AZERSPACE 2 (IS-38),2018-074A,2026-07-15T20:25:42.166272,1.00273206,.00016179,0.0246,58.5053,67.4827,159.2539,0,U,43632,999,2873,0,0,0
HORIZONS-3E,2018-074B,2026-07-13T15:21:38.465856,1.00270118,.00009408,0.0498,224.9289,53.6947,52.2963,0,U,43633,999,2860,0,-.35E-6,0
AT&T T-16,2019-034A,2026-07-14T19:46:46.069248,1.00268430,.00006162,0.0157,70.7114,248.2150,169.5701,0,U,44333,999,2591,0,-.123E-5,0
INTELSAT 39 (IS-39),2019-049B,2026-07-16T03:21:03.549024,1.00269286,.0000929,0.0247,59.2038,281.5049,65.4850,0,U,44476,999,2541,0,0,0
GALAXY 30 (G-30),2020-056C,2026-07-15T23:02:28.713984,1.00272066,.000201,0.0128,68.4269,47.3472,38.6367,0,U,46114,999,2158,0,.26E-6,0
GALAXY 33 (G-33),2022-128A,2026-07-15T22:59:58.954272,1.00272587,.0001814,0.0111,52.8487,67.7217,25.2247,0,U,54026,999,1403,0,.68E-6,0
GALAXY 34 (G-34),2022-128B,2026-07-16T03:40:33.200256,1.00273219,.0001518,0.0115,44.1059,105.6630,70.3609,0,U,54027,999,1420,0,.48E-6,0
GALAXY 31 (G-31),2022-153A,2026-07-16T03:23:02.063040,1.00271461,.000102,0.0139,88.7797,31.0845,103.8504,0,U,54243,999,742,0,.3E-7,0
GALAXY 32 (G-32),2022-153B,2026-07-16T02:37:27.983424,1.00272484,.0001335,0.0093,52.6326,351.4801,198.1918,0,U,54244,999,1343,0,-.185E-5,0
GALAXY 35 (G-35),2022-170A,2026-07-16T02:36:50.541984,1.00272286,.0001798,0.0158,70.4057,45.9484,123.6831,0,U,54741,999,1318,0,-.173E-5,0
GALAXY 36 (G-36),2022-170B,2026-07-15T14:39:27.997344,1.00270281,.00023966,0.0054,142.8857,316.1422,325.2844,0,U,54742,999,1305,0,-.195E-5,0
GALAXY 37 (G-37),2023-112A,2026-07-16T00:44:30.509952,1.00271251,.0001811,0.0183,48.0907,70.1892,59.7307,0,U,57493,999,1083,0,0,0
